[{"OBJECT_NAME":"ONEWEB-0080","OBJECT_ID":"2020-020C","EPOCH":"2026-03-09T22:20:57.148800","MEAN_MOTION":13.11412701,"ECCENTRICITY":0.0002137,"INCLINATION":87.8863,"RA_OF_ASC_NODE":40.7981,"ARG_OF_PERICENTER":88.8299,"MEAN_ANOMALY":271.3074,"EPHEMERIS_TYPE":0,"CLASSIFICATION_TYPE":"U","NORAD_CAT_ID":45426,"ELEMENT_SET_NO":999,"REV_AT_EPOCH":28969,"BSTAR":-0.00089608248,"MEAN_MOTION_DOT":-3.05e-6,"MEAN_MOTION_DDOT":0},{"OBJECT_NAME":"UNKNOWN","OBJECT_ID":"","EPOCH":"2026-03-09T08:27:49.820544","MEAN_MOTION":13.19542552,"ECCENTRICITY":0.0119624,"INCLINATION":100.743,"RA_OF_ASC_NODE":271.3979,"ARG_OF_PERICENTER":165.8522,"MEAN_ANOMALY":194.5989,"EPHEMERIS_TYPE":0,"CLASSIFICATION_TYPE":"U","NORAD_CAT_ID":87771,"ELEMENT_SET_NO":999,"REV_AT_EPOCH":54651,"BSTAR":0.00035572,"MEAN_MOTION_DOT":1.01e-6,"MEAN_MOTION_DDOT":0}]
